[{"OBJECT_NAME":"STARLINK-5947","OBJECT_ID":"2023-042D","EPOCH":"2025-10-05T02:28:37.298208","MEAN_MOTION":15.02534617,"ECCENTRICITY":9.12e-5,"INCLINATION":43.0034,"RA_OF_ASC_NODE":181.7419,"ARG_OF_PERICENTER":278.4666,"MEAN_ANOMALY":81.6073,"EPHEMERIS_TYPE":0,"CLASSIFICATION_TYPE":"U","NORAD_CAT_ID":55989,"ELEMENT_SET_NO":999,"REV_AT_EPOCH":13950,"BSTAR":8.4446e-5,"MEAN_MOTION_DOT":9.37e-6,"MEAN_MOTION_DDOT":0},{"OBJECT_NAME":"STARLINK-5946","OBJECT_ID":"2023-042E","EPOCH":"2025-10-05T02:39:48.596832","MEAN_MOTION":15.02536675,"ECCENTRICITY":9.91e-5,"INCLINATION":43.0032,"RA_OF_ASC_NODE":181.8014,"ARG_OF_PERICENTER":280.4009,"MEAN_ANOMALY":79.6721,"EPHEMERIS_TYPE":0,"CLASSIFICATION_TYPE":"U","NORAD_CAT_ID":55990,"ELEMENT_SET_NO":999,"REV_AT_EPOCH":13950,"BSTAR":1.4812e-5,"MEAN_MOTION_DOT":-3.0e-8,"MEAN_MOTION_DDOT":0},{"OBJECT_NAME":"STARLINK-5948","OBJECT_ID":"2023-042F","EPOCH":"2025-10-03T03:50:07.990080","MEAN_MOTION":15.02536363,"ECCENTRICITY":0.00015867,"INCLINATION":43.003,"RA_OF_ASC_NODE":192.0968,"ARG_OF_PERICENTER":258.5204,"MEAN_ANOMALY":101.5461,"EPHEMERIS_TYPE":0,"CLASSIFICATION_TYPE":"U","NORAD_CAT_ID":55991,"ELEMENT_SET_NO":999,"REV_AT_EPOCH":13921,"BSTAR":-4.0058802e-5,"MEAN_MOTION_DOT":-7.45e-6,"MEAN_MOTION_DDOT":0},{"OBJECT_NAME":"STARLINK-5969","OBJECT_ID":"2023-042H","EPOCH":"2025-10-05T00:57:41.383584","MEAN_MOTION":15.02535795,"ECCENTRICITY":0.0001313,"INCLINATION":43.0057,"RA_OF_ASC_NODE":182.1289,"ARG_OF_PERICENTER":268.0298,"MEAN_ANOMALY":92.0394,"EPHEMERIS_TYPE":0,"CLASSIFICATION_TYPE":"U","NORAD_CAT_ID":55993,"ELEMENT_SET_NO":999,"REV_AT_EPOCH":13949,"BSTAR":6.8046e-5,"MEAN_MOTION_DOT":7.16e-6,"MEAN_MOTION_DDOT":0},{"OBJECT_NAME":"STARLINK-5956","OBJECT_ID":"2023-042J","EPOCH":"2025-10-05T02:15:50.366016","MEAN_MOTION":15.02519016,"ECCENTRICITY":0.0001373,"INCLINATION":43.0038,"RA_OF_ASC_NODE":181.6745,"ARG_OF_PERICENTER":274.4349,"MEAN_ANOMALY":85.6336,"EPHEMERIS_TYPE":0,"CLASSIFICATION_TYPE":"U","NORAD_CAT_ID":55994,"ELEMENT_SET_NO":999,"REV_AT_EPOCH":13950,"BSTAR":-0.00017887,"MEAN_MOTION_DOT":-2.618e-5,"MEAN_MOTION_DDOT":0},{"OBJECT_NAME":"STARLINK-5957","OBJECT_ID":"2023-042K","EPOCH":"2025-10-05T02:23:49.138656","MEAN_MOTION":15.02541199,"ECCENTRICITY":0.0001263,"INCLINATION":43.003,"RA_OF_ASC_NODE":181.7158,"ARG_OF_PERICENTER":274.1071,"MEAN_ANOMALY":85.9627,"EPHEMERIS_TYPE":0,"CLASSIFICATION_TYPE":"U","NORAD_CAT_ID":55995,"ELEMENT_SET_NO":999,"REV_AT_EPOCH":13950,"BSTAR":0.00010784,"MEAN_MOTION_DOT":1.254e-5,"MEAN_MOTION_DDOT":0},{"OBJECT_NAME":"STARLINK-5903","OBJECT_ID":"2023-042L","EPOCH":"2025-10-05T00:20:55.466304","MEAN_MOTION":15.02543297,"ECCENTRICITY":0.0001064,"INCLINATION":43.0027,"RA_OF_ASC_NODE":181.9369,"ARG_OF_PERICENTER":267.6619,"MEAN_ANOMALY":92.4102,"EPHEMERIS_TYPE":0,"CLASSIFICATION_TYPE":"U","NORAD_CAT_ID":55996,"ELEMENT_SET_NO":999,"REV_AT_EPOCH":13949,"BSTAR":0.00011647,"MEAN_MOTION_DOT":1.37e-5,"MEAN_MOTION_DDOT":0},{"OBJECT_NAME":"STARLINK-5902","OBJECT_ID":"2023-042N","EPOCH":"2025-10-05T03:25:59.503584","MEAN_MOTION":15.02537211,"ECCENTRICITY":0.0001225,"INCLINATION":43.0042,"RA_OF_ASC_NODE":181.181,"ARG_OF_PERICENTER":270.8949,"MEAN_ANOMALY":89.1753,"EPHEMERIS_TYPE":0,"CLASSIFICATION_TYPE":"U","NORAD_CAT_ID":55998,"ELEMENT_SET_NO":999,"REV_AT_EPOCH":13951,"BSTAR":7.2101e-5,"MEAN_MOTION_DOT":7.7e-6,"MEAN_MOTION_DDOT":0},{"OBJECT_NAME":"STARLINK-5901","OBJECT_ID":"2023-042P","EPOCH":"2025-10-05T02:01:27.907392","MEAN_MOTION":15.02454384,"ECCENTRICITY":7.67e-5,"INCLINATION":43.0028,"RA_OF_ASC_NODE":181.5987,"ARG_OF_PERICENTER":257.2292,"MEAN_ANOMALY":102.8465,"EPHEMERIS_TYPE":0,"CLASSIFICATION_TYPE":"U","NORAD_CAT_ID":55999,"ELEMENT_SET_NO":999,"REV_AT_EPOCH":13950,"BSTAR":0.0011651,"MEAN_MOTION_DOT":0.00015536,"MEAN_MOTION_DDOT":0},{"OBJECT_NAME":"STARLINK-5910","OBJECT_ID":"2023-042Q","EPOCH":"2025-10-05T03:08:26.756736","MEAN_MOTION":15.02517582,"ECCENTRICITY":8.31e-5,"INCLINATION":43.0034,"RA_OF_ASC_NODE":181.0867,"ARG_OF_PERICENTER":270.654,"MEAN_ANOMALY":89.4207,"EPHEMERIS_TYPE":0,"CLASSIFICATION_TYPE":"U","NORAD_CAT_ID":56000,"ELEMENT_SET_NO":999,"REV_AT_EPOCH":13951,"BSTAR":-0.00012316,"MEAN_MOTION_DOT":-1.866e-5,"MEAN_MOTION_DDOT":0},{"OBJECT_NAME":"STARLINK-5944","OBJECT_ID":"2023-042R","EPOCH":"2025-10-05T00:09:44.768160","MEAN_MOTION":15.02527116,"ECCENTRICITY":0.0001029,"INCLINATION":43.0012,"RA_OF_ASC_NODE":181.8753,"ARG_OF_PERICENTER":261.4492,"MEAN_ANOMALY":98.6233,"EPHEMERIS_TYPE":0,"CLASSIFICATION_TYPE":"U","NORAD_CAT_ID":56001,"ELEMENT_SET_NO":999,"REV_AT_EPOCH":13949,"BSTAR":0.00010239,"MEAN_MOTION_DOT":1.18e-5,"MEAN_MOTION_DDOT":0},{"OBJECT_NAME":"STARLINK-5799","OBJECT_ID":"2023-042S","EPOCH":"2025-10-05T03:13:11.562240","MEAN_MOTION":15.02575496,"ECCENTRICITY":0.0002082,"INCLINATION":43.0045,"RA_OF_ASC_NODE":181.1095,"ARG_OF_PERICENTER":266.1326,"MEAN_ANOMALY":93.9278,"EPHEMERIS_TYPE":0,"CLASSIFICATION_TYPE":"U","NORAD_CAT_ID":56002,"ELEMENT_SET_NO":999,"REV_AT_EPOCH":13951,"BSTAR":-0.00063419,"MEAN_MOTION_DOT":-8.769e-5,"MEAN_MOTION_DDOT":0},{"OBJECT_NAME":"STARLINK-5789","OBJECT_ID":"2023-042T","EPOCH":"2025-10-04T22:43:36.734880","MEAN_MOTION":15.02510688,"ECCENTRICITY":9.28e-5,"INCLINATION":43.0019,"RA_OF_ASC_NODE":182.2883,"ARG_OF_PERICENTER":262.3922,"MEAN_ANOMALY":97.6815,"EPHEMERIS_TYPE":0,"CLASSIFICATION_TYPE":"U","NORAD_CAT_ID":56003,"ELEMENT_SET_NO":999,"REV_AT_EPOCH":13948,"BSTAR":-0.00020385,"MEAN_MOTION_DOT":-2.954e-5,"MEAN_MOTION_DDOT":0},{"OBJECT_NAME":"STARLINK-5787","OBJECT_ID":"2023-042U","EPOCH":"2025-10-05T03:03:36.795744","MEAN_MOTION":15.02536932,"ECCENTRICITY":0.0001337,"INCLINATION":43.0037,"RA_OF_ASC_NODE":181.062,"ARG_OF_PERICENTER":261.1425,"MEAN_ANOMALY":98.9266,"EPHEMERIS_TYPE":0,"CLASSIFICATION_TYPE":"U","NORAD_CAT_ID":56004,"ELEMENT_SET_NO":999,"REV_AT_EPOCH":13951,"BSTAR":3.6955e-5,"MEAN_MOTION_DOT":2.96e-6,"MEAN_MOTION_DDOT":0},{"OBJECT_NAME":"STARLINK-5801","OBJECT_ID":"2023-042V","EPOCH":"2025-10-05T01:42:16.284384","MEAN_MOTION":15.02535161,"ECCENTRICITY":0.0001263,"INCLINATION":43.0045,"RA_OF_ASC_NODE":181.4986,"ARG_OF_PERICENTER":265.8,"MEAN_ANOMALY":94.2698,"EPHEMERIS_TYPE":0,"CLASSIFICATION_TYPE":"U","NORAD_CAT_ID":56005,"ELEMENT_SET_NO":999,"REV_AT_EPOCH":13950,"BSTAR":4.7035e-5,"MEAN_MOTION_DOT":4.32e-6,"MEAN_MOTION_DDOT":0},{"OBJECT_NAME":"STARLINK-5794","OBJECT_ID":"2023-042W","EPOCH":"2025-10-05T02:57:13.520160","MEAN_MOTION":15.02538766,"ECCENTRICITY":0.0001564,"INCLINATION":43.0011,"RA_OF_ASC_NODE":181.0265,"ARG_OF_PERICENTER":273.1245,"MEAN_ANOMALY":86.9418,"EPHEMERIS_TYPE":0,"CLASSIFICATION_TYPE":"U","NORAD_CAT_ID":56006,"ELEMENT_SET_NO":999,"REV_AT_EPOCH":13951,"BSTAR":-6.8553e-5,"MEAN_MOTION_DOT":-1.13e-5,"MEAN_MOTION_DDOT":0},{"OBJECT_NAME":"STARLINK-5806","OBJECT_ID":"2023-042X","EPOCH":"2025-10-04T23:50:33.578016","MEAN_MOTION":15.02535101,"ECCENTRICITY":0.0001454,"INCLINATION":43.0036,"RA_OF_ASC_NODE":181.7767,"ARG_OF_PERICENTER":269.592,"MEAN_ANOMALY":90.4755,"EPHEMERIS_TYPE":0,"CLASSIFICATION_TYPE":"U","NORAD_CAT_ID":56007,"ELEMENT_SET_NO":999,"REV_AT_EPOCH":13949,"BSTAR":0.00010669,"MEAN_MOTION_DOT":1.238e-5,"MEAN_MOTION_DDOT":0}]
