STARLINK-5947           
1 55989U 23042D   25278.10320947  .00000937  00000+0  84446-4 0  9995
2 55989  43.0034 181.7419 0000912 278.4666  81.6073 15.02534617139501
STARLINK-5946           
1 55990U 23042E   25278.11097913 -.00000003  00000+0  14812-4 0  9997
2 55990  43.0032 181.8014 0000991 280.4009  79.6721 15.02536675139507
STARLINK-5948           
1 55991U 23042F   25276.15981470 -.00000745  00000+0 -40059-4 0  9996
2 55991  43.0030 192.0968 0001586 258.5204 101.5461 15.02536363139210
STARLINK-5969           
1 55993U 23042H   25278.04006231  .00000716  00000+0  68046-4 0  9993
2 55993  43.0057 182.1289 0001313 268.0298  92.0394 15.02535795139491
STARLINK-5956           
1 55994U 23042J   25278.09433294 -.00002618  00000+0 -17887-3 0  9993
2 55994  43.0038 181.6745 0001373 274.4349  85.6336 15.02519016139500
STARLINK-5957           
1 55995U 23042K   25278.09987429  .00001254  00000+0  10784-3 0  9990
2 55995  43.0030 181.7158 0001263 274.1071  85.9627 15.02541199139502
STARLINK-5903           
1 55996U 23042L   25278.01453086  .00001370  00000+0  11647-3 0  9998
2 55996  43.0027 181.9369 0001064 267.6619  92.4102 15.02543297139499
STARLINK-5902           
1 55998U 23042N   25278.14304981  .00000770  00000+0  72101-4 0  9999
2 55998  43.0042 181.1810 0001225 270.8949  89.1753 15.02537211139519
STARLINK-5901           
1 55999U 23042P   25278.08435078  .00015536  00000+0  11651-2 0  9992
2 55999  43.0028 181.5987 0000767 257.2292 102.8465 15.02454384139504
STARLINK-5910           
1 56000U 23042Q   25278.13086524 -.00001866  00000+0 -12316-3 0  9993
2 56000  43.0034 181.0867 0000831 270.6540  89.4207 15.02517582139519
STARLINK-5944           
1 56001U 23042R   25278.00676815  .00001180  00000+0  10239-3 0  9997
2 56001  43.0012 181.8753 0001029 261.4492  98.6233 15.02527116139494
STARLINK-5799           
1 56002U 23042S   25278.13416160 -.00008769  00000+0 -63419-3 0  9997
2 56002  43.0045 181.1095 0002082 266.1326  93.9278 15.02575496139515
STARLINK-5789           
1 56003U 23042T   25277.94695295 -.00002954  00000+0 -20385-3 0  9999
2 56003  43.0019 182.2883 0000928 262.3922  97.6815 15.02510688139487
STARLINK-5787           
1 56004U 23042U   25278.12750921  .00000296  00000+0  36955-4 0  9995
2 56004  43.0037 181.0620 0001337 261.1425  98.9266 15.02536932139512
STARLINK-5801           
1 56005U 23042V   25278.07102181  .00000432  00000+0  47035-4 0  9992
2 56005  43.0045 181.4986 0001263 265.8000  94.2698 15.02535161139509
STARLINK-5794           
1 56006U 23042W   25278.12307315 -.00001130  00000+0 -68553-4 0  9991
2 56006  43.0011 181.0265 0001564 273.1245  86.9418 15.02538766139519
STARLINK-5806           
1 56007U 23042X   25277.99344419  .00001238  00000+0  10669-3 0  9993
2 56007  43.0036 181.7767 0001454 269.5920  90.4755 15.02535101139499
